{"type": "FeatureCollection", "features": [ {"type": "Feature", "properties": {"norad_id": 51444, "name": "CSG-2", "group": "resource", "lat": 47.004100519589244, "lon": -5.481856859410525, "alt_km": 617.702174627424, "timestamp": "2025-12-10T14:53:36.780385+00:00", "meta": {"OBJECT_NAME": "CSG-2", "OBJECT_ID": "2022-008A", "EPOCH": "2025-12-10T07:49:03.550656", "MEAN_MOTION": 14.82157972, "ECCENTRICITY": 0.00014894, "INCLINATION": 97.8805, "RA_OF_ASC_NODE": 165.6848, "ARG_OF_PERICENTER": 84.7901, "MEAN_ANOMALY": 275.3482, "EPHEMERIS_TYPE": 0, "CLASSIFICATION_TYPE": "U", "NORAD_CAT_ID": 51444, "ELEMENT_SET_NO": 999, "REV_AT_EPOCH": 20861, "BSTAR": 6.3242123e-05, "MEAN_MOTION_DOT": 4.51e-06, "MEAN_MOTION_DDOT": 0}, "tle": {"line1": "1 51444U 22008A   25344.32573554  .00000451  00000+0  63242-4 0  9992", "line2": "2 51444  97.8805 165.6848 0001489  84.7901 275.3482 14.82157972208610"}}, "geometry": {"type": "Point", "coordinates": [-5.481856859410525, 47.004100519589244]}}, {"type": "Feature", "properties": {"norad_id": 52912, "name": "GAOFEN-12 03", "group": "resource", "lat": 66.99609122702725, "lon": -146.94015024625668, "alt_km": 622.461757720007, "timestamp": "2025-12-10T14:53:36.780394+00:00", "meta": {"OBJECT_NAME": "GAOFEN-12 03", "OBJECT_ID": "2022-069A", "EPOCH": "2025-12-10T06:28:14.945952", "MEAN_MOTION": 14.79600212, "ECCENTRICITY": 0.00022883, "INCLINATION": 97.848, "RA_OF_ASC_NODE": 231.6754, "ARG_OF_PERICENTER": 64.751, "MEAN_ANOMALY": 295.3939, "EPHEMERIS_TYPE": 0, "CLASSIFICATION_TYPE": "U", "NORAD_CAT_ID": 52912, "ELEMENT_SET_NO": 999, "REV_AT_EPOCH": 18667, "BSTAR": 0.0002520129, "MEAN_MOTION_DOT": 1.838e-05, "MEAN_MOTION_DDOT": 0}, "tle": {"line1": "1 52912U 22069A   25344.26961743  .00001838  00000+0  25201-3 0  9996", "line2": "2 52912  97.8480 231.6754 0002288  64.7510 295.3939 14.79600212186678"}}, "geometry": {"type": "Point", "coordinates": [-146.94015024625668, 66.99609122702725]}}, {"type": "Feature", "properties": {"norad_id": 54754, "name": "SWOT", "group": "resource", "lat": -68.14539426414841, "lon": -103.38261859855457, "alt_km": 900.516390779253, "timestamp": "2025-12-10T14:53:36.780403+00:00", "meta": {"OBJECT_NAME": "SWOT", "OBJECT_ID": "2022-173A", "EPOCH": "2025-12-10T06:39:42.292512", "MEAN_MOTION": 14.0017414, "ECCENTRICITY": 3.305e-05, "INCLINATION": 77.6105, "RA_OF_ASC_NODE": 290.3134, "ARG_OF_PERICENTER": 120.086, "MEAN_ANOMALY": 240.0325, "EPHEMERIS_TYPE": 0, "CLASSIFICATION_TYPE": "U", "NORAD_CAT_ID": 54754, "ELEMENT_SET_NO": 999, "REV_AT_EPOCH": 15271, "BSTAR": 5.1195188e-05, "MEAN_MOTION_DOT": 7.3e-07, "MEAN_MOTION_DDOT": 0}, "tle": {"line1": "1 54754U 22173A   25344.27757283  .00000073  00000+0  51195-4 0  9993", "line2": "2 54754  77.6105 290.3134 0000330 120.0860 240.0325 14.00174140152712"}}, "geometry": {"type": "Point", "coordinates": [-103.38261859855457, -68.14539426414841]}}, {"type": "Feature", "properties": {"norad_id": 57654, "name": "GAOFEN-12 04", "group": "resource", "lat": -56.47568252876946, "lon": 68.29291804160704, "alt_km": 638.3049593334126, "timestamp": "2025-12-10T14:53:36.780412+00:00", "meta": {"OBJECT_NAME": "GAOFEN-12 04", "OBJECT_ID": "2023-123A", "EPOCH": "2025-12-10T07:19:58.204128", "MEAN_MOTION": 14.79689071, "ECCENTRICITY": 0.00013666, "INCLINATION": 97.9117, "RA_OF_ASC_NODE": 260.0997, "ARG_OF_PERICENTER": 73.539, "MEAN_ANOMALY": 286.5972, "EPHEMERIS_TYPE": 0, "CLASSIFICATION_TYPE": "U", "NORAD_CAT_ID": 57654, "ELEMENT_SET_NO": 999, "REV_AT_EPOCH": 12469, "BSTAR": 0.00031036243, "MEAN_MOTION_DOT": 2.279e-05, "MEAN_MOTION_DDOT": 0}, "tle": {"line1": "1 57654U 23123A   25344.30553477  .00002279  00000+0  31036-3 0  9995", "line2": "2 57654  97.9117 260.0997 0001366  73.5390 286.5972 14.79689071124692"}}, "geometry": {"type": "Point", "coordinates": [68.29291804160704, -56.47568252876946]}}, {"type": "Feature", "properties": {"norad_id": 59065, "name": "PARS 1", "group": "resource", "lat": 12.213030035306014, "lon": 137.13475920793147, "alt_km": 444.7090862487448, "timestamp": "2025-12-10T14:53:36.780422+00:00", "meta": {"OBJECT_NAME": "PARS 1", "OBJECT_ID": "2024-039Q", "EPOCH": "2025-12-10T06:22:37.706016", "MEAN_MOTION": 15.40885048, "ECCENTRICITY": 0.00126525, "INCLINATION": 97.4638, "RA_OF_ASC_NODE": 315.1463, "ARG_OF_PERICENTER": 79.7167, "MEAN_ANOMALY": 280.5505, "EPHEMERIS_TYPE": 0, "CLASSIFICATION_TYPE": "U", "NORAD_CAT_ID": 59065, "ELEMENT_SET_NO": 999, "REV_AT_EPOCH": 9950, "BSTAR": 0.00039941573, "MEAN_MOTION_DOT": 0.0001638, "MEAN_MOTION_DDOT": 0}, "tle": {"line1": "1 59065U 24039Q   25344.26571419  .00016380  00000+0  39942-3 0  9993", "line2": "2 59065  97.4638 315.1463 0012652  79.7167 280.5505 15.40885048 99501"}}, "geometry": {"type": "Point", "coordinates": [137.13475920793147, 12.213030035306014]}}, {"type": "Feature", "properties": {"norad_id": 59371, "name": "RESURS-P 4", "group": "resource", "lat": 16.794355146018884, "lon": -71.20931448022782, "alt_km": 469.39544827940426, "timestamp": "2025-12-10T14:53:36.780431+00:00", "meta": {"OBJECT_NAME": "RESURS-P 4", "OBJECT_ID": "2024-061A", "EPOCH": "2025-12-10T06:58:55.868160", "MEAN_MOTION": 15.32054662, "ECCENTRICITY": 0.00017039, "INCLINATION": 97.2543, "RA_OF_ASC_NODE": 290.6711, "ARG_OF_PERICENTER": 53.131, "MEAN_ANOMALY": 307.0088, "EPHEMERIS_TYPE": 0, "CLASSIFICATION_TYPE": "U", "NORAD_CAT_ID": 59371, "ELEMENT_SET_NO": 999, "REV_AT_EPOCH": 9483, "BSTAR": 0.0001935274, "MEAN_MOTION_DOT": 5.913e-05, "MEAN_MOTION_DDOT": 0}, "tle": {"line1": "1 59371U 24061A   25344.29092440  .00005913  00000+0  19353-3 0  9997", "line2": "2 59371  97.2543 290.6711 0001703  53.1310 307.0088 15.32054662 94831"}}, "geometry": {"type": "Point", "coordinates": [-71.20931448022782, 16.794355146018884]}}, {"type": "Feature", "properties": {"norad_id": 59625, "name": "LEGION 1", "group": "resource", "lat": 0.8282665169257761, "lon": 59.167301055120234, "alt_km": 517.1718050644658, "timestamp": "2025-12-10T14:53:36.780440+00:00", "meta": {"OBJECT_NAME": "LEGION 1", "OBJECT_ID": "2024-081A", "EPOCH": "2025-12-10T05:23:16.589184", "MEAN_MOTION": 15.16439777, "ECCENTRICITY": 0.00041755, "INCLINATION": 97.521, "RA_OF_ASC_NODE": 58.8841, "ARG_OF_PERICENTER": 328.5507, "MEAN_ANOMALY": 31.5476, "EPHEMERIS_TYPE": 0, "CLASSIFICATION_TYPE": "U", "NORAD_CAT_ID": 59625, "ELEMENT_SET_NO": 999, "REV_AT_EPOCH": 8889, "BSTAR": 0.00040597008, "MEAN_MOTION_DOT": 7.832e-05, "MEAN_MOTION_DDOT": 0}, "tle": {"line1": "1 59625U 24081A   25344.22449756  .00007832  00000+0  40597-3 0  9996", "line2": "2 59625  97.5210  58.8841 0004175 328.5507  31.5476 15.16439777 88893"}}, "geometry": {"type": "Point", "coordinates": [59.167301055120234, 0.8282665169257761]}}, {"type": "Feature", "properties": {"norad_id": 59626, "name": "LEGION 2", "group": "resource", "lat": -0.6714665209124457, "lon": -120.72472511594155, "alt_km": 521.8750369624586, "timestamp": "2025-12-10T14:53:36.780448+00:00", "meta": {"OBJECT_NAME": "LEGION 2", "OBJECT_ID": "2024-081B", "EPOCH": "2025-12-10T06:10:52.039200", "MEAN_MOTION": 15.16451943, "ECCENTRICITY": 0.0005791, "INCLINATION": 97.5213, "RA_OF_ASC_NODE": 59.0041, "ARG_OF_PERICENTER": 304.3633, "MEAN_ANOMALY": 55.7051, "EPHEMERIS_TYPE": 0, "CLASSIFICATION_TYPE": "U", "NORAD_CAT_ID": 59626, "ELEMENT_SET_NO": 999, "REV_AT_EPOCH": 8890, "BSTAR": 0.00036565913, "MEAN_MOTION_DOT": 7.05e-05, "MEAN_MOTION_DDOT": 0}, "tle": {"line1": "1 59626U 24081B   25344.25754675  .00007050  00000+0  36566-3 0  9992", "line2": "2 59626  97.5213  59.0041 0005791 304.3633  55.7051 15.16451943 88907"}}, "geometry": {"type": "Point", "coordinates": [-120.72472511594155, -0.6714665209124457]}}, {"type": "Feature", "properties": {"norad_id": 60182, "name": "ALOS-4 (DAICHI-4)", "group": "resource", "lat": 59.395301824937775, "lon": -86.88568155809621, "alt_km": 624.2815872299143, "timestamp": "2025-12-10T14:53:36.780458+00:00", "meta": {"OBJECT_NAME": "ALOS-4 (DAICHI-4)", "OBJECT_ID": "2024-123A", "EPOCH": "2025-12-10T06:14:20.406624", "MEAN_MOTION": 14.79473683, "ECCENTRICITY": 0.00014446, "INCLINATION": 97.9225, "RA_OF_ASC_NODE": 79.1423, "ARG_OF_PERICENTER": 101.4766, "MEAN_ANOMALY": 258.6608, "EPHEMERIS_TYPE": 0, "CLASSIFICATION_TYPE": "U", "NORAD_CAT_ID": 60182, "ELEMENT_SET_NO": 999, "REV_AT_EPOCH": 7794, "BSTAR": 0.00035518551, "MEAN_MOTION_DOT": 2.602e-05, "MEAN_MOTION_DDOT": 0}, "tle": {"line1": "1 60182U 24123A   25344.25995841  .00002602  00000+0  35519-3 0  9995", "line2": "2 60182  97.9225  79.1423 0001444 101.4766 258.6608 14.79473683 77941"}}, "geometry": {"type": "Point", "coordinates": [-86.88568155809621, 59.395301824937775]}}, {"type": "Feature", "properties": {"norad_id": 60452, "name": "LEGION 3", "group": "resource", "lat": -24.11466607176739, "lon": 168.1017960556617, "alt_km": 512.3882164278157, "timestamp": "2025-12-10T14:53:36.780468+00:00", "meta": {"OBJECT_NAME": "LEGION 3", "OBJECT_ID": "2024-146A", "EPOCH": "2025-12-10T06:02:23.090496", "MEAN_MOTION": 15.15719839, "ECCENTRICITY": 0.00146149, "INCLINATION": 45.0023, "RA_OF_ASC_NODE": 323.471, "ARG_OF_PERICENTER": 185.248, "MEAN_ANOMALY": 174.8247, "EPHEMERIS_TYPE": 0, "CLASSIFICATION_TYPE": "U", "NORAD_CAT_ID": 60452, "ELEMENT_SET_NO": 999, "REV_AT_EPOCH": 7335, "BSTAR": 0.00041777248, "MEAN_MOTION_DOT": 7.859e-05, "MEAN_MOTION_DDOT": 0}, "tle": {"line1": "1 60452U 24146A   25344.25165614  .00007859  00000+0  41777-3 0  9999", "line2": "2 60452  45.0023 323.4710 0014614 185.2480 174.8247 15.15719839 73357"}}, "geometry": {"type": "Point", "coordinates": [168.1017960556617, -24.11466607176739]}}]}